ORBVIEW 2 (SEASTAR)     
1 24883U 97037A   25325.02748638  .00000330  00000+0  13137-3 0  9999
2 24883  98.8452 121.5569 0002710  41.3714 318.7675 14.35393596492888
SL-16 R/B               
1 25400U 98043G   25324.76664461  .00000085  00000+0  54581-4 0  9990
2 25400  98.8089 272.4658 0009420 336.3744  23.7002 14.26017767423468
SL-16 R/B               
1 25407U 98045B   25324.51500615 -.00000006  00000+0  20935-4 0  9992
2 25407  71.0123  51.1632 0008278 208.0432 152.0246 14.16168641411640
ISS (ZARYA)             
1 25544U 98067A   25324.86734765  .00014275  00000+0  26737-3 0  9998
2 25544  51.6324 250.7347 0003961 150.1460 209.9755 15.48935269539463
CZ-4B R/B               
1 25732U 99025C   25325.16224579  .00000103  00000+0  70673-4 0  9997
2 25732  98.6799   6.9216 0036115 297.8078 129.7335 14.18235899372787
OKEAN-O                 
1 25860U 99039A   25325.15674727  .00000761  00000+0  10726-3 0  9999
2 25860  97.9634  21.0425 0001153  66.9029 293.2304 14.80108202418335
SL-16 R/B               
1 25861U 99039B   25325.17262455  .00000642  00000+0  88677-4 0  9992
2 25861  98.0157  19.3195 0013582 247.5872 112.3902 14.81541084420792
DELTA 2 R/B             
1 25876U 99041E   25325.11518119  .00001097  00000+0  21628-3 0  9993
2 25876  51.7633  14.7630 0504891  28.0432 334.6746 14.11323332347697
HELIOS 1B               
1 25977U 99064A   25324.46625203  .00002166  00000+0  24743-3 0  9999
2 25977  98.1756 218.4732 0002520  73.3477 286.8015 14.87152683669023
TERRA                   
1 25994U 99068A   25325.15917115  .00000524  00000+0  11607-3 0  9996
2 25994  97.9778  17.6317 0002900 142.3226 276.7721 14.60916582379232
SL-16 R/B               
1 26070U 00006B   25325.13799258 -.00000099  00000+0 -25935-4 0  9999
2 26070  71.0019 326.0789 0017310 338.9207  21.1200 14.15801170333197
TITAN 4B R/B            
1 26474U 00047B   25325.12997955  .00003164  00000+0  20677-3 0  9996
2 26474  67.9902 345.5369 0040837 170.0917 190.1047 15.08559679376531
